CUTE-1 (CO-55)          
1 27844U 03031E   26204.00389230  .00000238  00000+0  12202-3 0  9993
2 27844  98.6747 212.1136 0010851  82.6312 277.6100 14.24355144196777
CUBESAT XI-IV (CO-57)   
1 27848U 03031J   26204.01036090  .00000205  00000+0  10894-3 0  9990
2 27848  98.6778 211.8037 0010712  99.0689 261.1702 14.23637690196477
CUBESAT XI-V            
1 28895U 05043F   26202.37477685  .00000932  00000+0  15414-3 0  9994
2 28895  98.3024 358.7230 0015344  97.2573 263.0378 14.72712744106788
CUTE-1.7+APD II (CO-65) 
1 32785U 08021C   26204.50585221  .00005372  00000+0  33682-3 0  9999
2 32785  97.8296 186.6930 0006980 264.2054  95.8378 15.09754568990678
CANX-2                  
1 32790U 08021H   26204.17335308  .00003699  00000+0  25920-3 0  9993
2 32790  97.8656 184.6611 0008684 285.1873  74.8392 15.05839367990223
SEEDS II (CO-66)        
1 32791U 08021J   26204.41936485  .00018972  00000+0  58050-3 0  9994
2 32791  97.7535 204.0816 0003920 140.5450 219.6077 15.33884906992845
SWISSCUBE               
1 35932U 09051B   26204.49750961  .00000830  00000+0  17327-3 0  9995
2 35932  98.3998 113.0137 0008112  97.1181 263.0943 14.62542294894462
BEESAT-1                
1 35933U 09051C   26204.45751221  .00000681  00000+0  14632-3 0  9992
2 35933  98.3926 112.5322 0006472 108.5434 251.6470 14.61771462894489
ITUPSAT1                
1 35935U 09051E   26204.27468562  .00000634  00000+0  14082-3 0  9994
2 35935  98.4011 111.4996 0008514 120.7967 239.4072 14.60487446894003
TISAT 1                 
1 36799U 10035E   26204.29318227  .00021823  00000+0  68647-3 0  9990
2 36799  98.0704 154.0856 0004850 104.9298 255.2479 15.32974639873239
STRAND-1                
1 39090U 13009E   26204.05022801  .00000241  00000+0  95167-4 0  9994
2 39090  98.3941  23.4053 0009729 120.1275 240.0877 14.37182344702216
BRITE-AUSTRIA           
1 39091U 13009F   26204.42694107  .00000152  00000+0  66177-4 0  9990
2 39091  98.4015  22.9694 0011163 128.0957 232.1238 14.36554972702250
NEE-01 PEGASO           
1 39151U 13018B   26203.83564981  .00002090  00000+0  20251-3 0  9992
2 39151  98.1267 349.1763 0013460  51.2724 308.9696 14.93816948716022
POPACS 2                
1 39269U 13055E   26204.46603818  .00024147 -85698-6  39593-3 0  9996
2 39269  80.9912 102.6445 0413888  77.3533 287.3618 14.92301661668628
POPACS 3                
1 39270U 13055F   26204.39084962  .00009628  00000+0  22978-3 0  9995
2 39270  81.0011 189.9076 0547705 319.6638  36.5105 14.56801841643829
ZACUBE-1 (TSHEPISOSAT)  
1 39417U 13066B   26204.33245206  .00003415  00000+0  26445-3 0  9995
2 39417  97.7990 166.8439 0044073 129.2358 231.2791 15.01362379686150
WNISAT-1                
1 39423U 13066H   26204.37634131  .00000959  00000+0  18136-3 0  9993
2 39423  97.7245 350.9721 0164223 117.7275 244.0691 14.58133479672008
TRITON-1                
1 39427U 13066M   26204.62622804  .00001580  00000+0  19278-3 0  9998
2 39427  97.8208 113.5990 0091172 115.0411 246.0302 14.81817814679486
GOMX-1                  
1 39430U 13066Q   26204.61419931  .00001024  00000+0  16024-3 0  9995
2 39430  97.6472  42.7787 0127518 321.0725  38.1351 14.69556095675262
CUBEBUG-2 (LO-74)       
1 39440U 13066AA  26204.36629569  .00002525  00000+0  23555-3 0  9992
2 39440  97.8915 153.5078 0055478 267.5794  91.9073 14.94006894682391
NEE-02 KRYSAOR          
1 39441U 13066AB  26204.28413993  .00001814  00000+0  20262-3 0  9998
2 39441  97.8897 143.2466 0064744 312.4198  47.1551 14.86763677681564
FUNCUBE-1 (AO-73)       
1 39444U 13066AE  26204.51050628  .00007621  00000+0  46628-3 0  9995
2 39444  97.8300 176.7303 0038149  80.8155 279.7386 15.09909897685145
UWE-3                   
1 39446U 13066AG  26204.30668996  .00003059  00000+0  26352-3 0  9990
2 39446  97.8729 160.6343 0047856 196.8794 163.0837 14.97241976682988
BRITE-CA1 (TORONTO)     
1 40020U 14033L   26204.59147242  .00000982  00000+0  15436-3 0  9995
2 40020  97.9779 332.8574 0079098 159.4625 200.9794 14.72735991647571
DUCHIFAT-1              
1 40021U 14033M   26204.12789155  .00177994  00000+0  12882-2 0  9999
2 40021  98.0412 268.5702 0003896 226.4566 133.6372 15.72917144661380
NANOSATC-BR1            
1 40024U 14033Q   26204.58560604  .00018140  00000+0  57915-3 0  9992
2 40024  98.0712 240.2270 0004904  76.8726 283.3061 15.32541596659553
QB50P1                  
1 40025U 14033R   26203.79923947  .00008602  00000+0  41700-3 0  9995
2 40025  98.0975 217.4558 0010565 102.9257 257.3156 15.18749882658434
QB50P2                  
1 40032U 14033Y   26204.41723263  .00007343  00000+0  39025-3 0  9990
2 40032  98.0771 203.5674 0008975  61.1515 299.0615 15.15588323658156
PERSEUS-M2              
1 40037U 14033AD  26204.59368788  .00001100  00000+0  10446-3 0  9992
2 40037  97.9971 155.8813 0011706 172.6329 187.5066 14.95599338656224
PERSEUS-M1              
1 40039U 14033AF  26204.36297604  .00000887  00000+0  85006-4 0  9993
2 40039  97.9652 149.0939 0011581 170.0931 190.0520 14.95731839656046
